STARLINK-30203
1 57498U 23113D   26061.16668981  .01431230  00000+0  66207-1 0  9998
2 57498  43.0001  57.7614 0001952 291.7364  76.2396 15.16400113  5811
STARLINK-30359
1 57779U 23134J   26061.16668981  .00040676  00000+0  20556-2 0  9990
2 57779  42.9995 225.2092 0001648 262.4592 103.5823 15.16411104  5614
